STARLINK-36280          
1 67211U 25304V   26004.16668980 -.02112475  00000+0 -34127-1 0  9998
2 67211  69.9997 344.1798 0003583 274.2011 101.5958 15.55886412  4075
STARLINK-36213          
1 67212U 25304W   26004.16668980 -.02111892  00000+0 -34120-1 0  9994
2 67212  69.9996 344.1774 0003499 274.7939 102.9217 15.55884573  4078
STARLINK-36199          
1 67213U 25304X   26004.16668980 -.02110226  00000+0 -34090-1 0  9991
2 67213  69.9996 344.1752 0003541 269.9842 109.6483 15.55883619  4071
STARLINK-36203          
1 67214U 25304Y   26004.16668980 -.02087167  00000+0 -33689-1 0  9992
2 67214  69.9996 344.1728 0003645 270.8473 110.7062 15.55869007  4072
STARLINK-36221          
1 67215U 25304Z   26004.16668980 -.02099849  00000+0 -33911-1 0  9991
2 67215  69.9998 344.1708 0003516 271.1716 112.2964 15.55876431  4071
STARLINK-36212          
1 67216U 25304AA  26004.16668980 -.02107818  00000+0 -34046-1 0  9998
2 67216  69.9998 344.1683 0003558 271.0466 114.3332 15.55883937  4072
STARLINK-36216          
1 67217U 25304AB  26004.16668980 -.02104327  00000+0 -33985-1 0  9992
2 67217  69.9996 344.1662 0003616 273.1172 114.1795 15.55881461  4071
STARLINK-36211          
1 67218U 25304AC  26004.16668980 -.02107173  00000+0 -34037-1 0  9994
2 67218  69.9995 344.1639 0003590 271.8560 117.3608 15.55880921  4047
DISKSAT A               
1 67219U 25305A   25354.38090451  .00000510  00000+0  50887-4 0  9996
2 67219  45.0057 310.0654 0003912 276.1097  83.9332 15.05762698   337
DISKSAT B               
1 67220U 25305B   25354.24828476  .00000511  00000+0  51086-4 0  9992
2 67220  45.0108 310.7693 0004681 270.4757  89.5581 15.05702195   312
DISKSAT C               
1 67221U 25305C   25354.31471422  .00001256  00000+0  10191-3 0  9994
2 67221  45.0067 310.4143 0004387 282.7791  77.2594 15.05653670   312
DISKSAT D               
1 67222U 25305D   25354.31483363  .00001252  00000+0  10184-3 0  9990
2 67222  45.0056 310.4150 0004477 287.6101  72.4284 15.05567005   317
ELECTRON KICK STAGE R/B 
1 67223U 25305E   25357.29083347  .00018707  00000+0  18366-3 0  9992
2 67223  44.9877 292.9264 0177490 166.6089 193.9601 15.48545747   794
ELECTRON R/B            
1 67224U 25305F   26004.00209163  .00691173  99077-5  29221-3 0  9992
2 67224  44.9925 222.1284 0113449  17.9961 342.4920 16.08211587  2658
TJS-23                  
1 67226U 25306A   26004.05376951  .00000025  00000+0  00000+0 0  9992
2 67226   5.9617 298.3417 0001032 286.7596  73.4566  1.00276227   240
CZ-5 R/B                
1 67227U 25306B   26002.23975566  .00003994  00000+0  95745-3 0  9990
2 67227  16.3556 294.8442 7582788 186.5720 149.5922  1.92311739   265
QPS-SAR-15              
1 67228U 25307A   26004.10795855  .00008939  00000+0  77322-3 0  9996
2 67228  42.0078  47.8468 0009054 352.1115   7.9566 14.97253632  2075
ELECTRON KICK STAGE R/B 
1 67229U 25307B   26004.12775103  .00793048  20365-3  20038-2 0  9996
2 67229  41.9987  40.0513 0199545 336.0500  23.1167 15.68860925  2168
ELECTRON R/B            
1 67230U 25307C   25355.36249005  .00071881  81069-5  20248-3 0  9997
2 67230  41.9820 123.1026 0261408 268.1410  88.9482 15.55087105    19
SPACEMOBILE-006         
1 67232U 25309A   25360.75210442  .00001165  00000+0  72651-4 0  9997
2 67232  53.0002  40.8851 0010477 329.2446  30.7932 15.17699903   405
LVM3 R/B                
1 67233U 25309B   25360.74928094  .00001231  00000+0  72627-4 0  9993
2 67233  52.9350  40.7629 0010474 355.6984   4.3917 15.19340101   404
2025-310A               
1 67234U 25310A   25363.31529613  .00002994  00000+0  13914-3 0  9996
2 67234  97.9657   8.0673 0151612  68.9370 292.7996 15.11153747   571
SL-4 R/B                
1 67235U 25310B   25364.94554285  .00131108  22082-5  30581-3 0  9999
2 67235  97.9679  10.0184 0299672  57.0996 305.8706 15.50179935   832
FENGYUN 4C              
1 67246U 25312A   25360.90857406  .00039214  41525-6  21251-2 0  9998
2 67246  28.4641 334.3215 7309751 179.7824 181.1675  2.27841578    17
CZ-3B R/B               
1 67247U 25312B   26003.40297772  .00145154  50902-6  55376-3 0  9999
2 67247  28.4338 331.3358 7234274 183.8270 163.8898  2.40117268   183
TIANHUI 7               
1 67300U 25314A   25365.92372150  .00003476  00000+0  14121-3 0  9992
2 67300  97.4225  78.1262 0001255 100.3877 259.7502 15.25236623   287
CZ-4B R/B               
1 67301U 25314B   25365.75235903  .00099613  48706-5  52684-3 0  9993
2 67301  97.3775  78.0261 0149992  13.3608 347.1555 15.66057522   218
2025-315A               
1 67302U 25315A   25365.60681806  .00007587  00000+0  11168-2 0  9995
2 67302  19.4941 100.4624 7295759 180.0324 168.0161  2.27863390    22
CZ-7A R/B               
1 67303U 25315B   25365.17922199  .00041123  76302-6  12201-2 0  9999
2 67303  19.7725 100.7388 7234083 178.7114 185.5568  2.38363488    20
CSG-3                   
1 67304U 26001A   26004.21567315  .00000864  00000+0  11680-3 0  9997
2 67304  97.8602 190.3050 0003577 172.4338 187.6929 14.81517625   172
